start=new Date('2023-04-01T00:00:00.000Z').valueOf();
sats=[{"TIME_SYSTEM":"UTC","ELEMENT_SET_NO":"999","EPOCH":"2023-03-31T15:51:42.198048","ARG_OF_PERICENTER":"96.3102","TLE_LINE2":"2 53284  53.2171 325.6237 0001006  96.3102 263.8005 15.08839629 38881","MEAN_MOTION":"15.08839629","MEAN_ELEMENT_THEORY":"SGP4","GP_ID":"229200708","ECCENTRICITY":"0.00010060","TLE_LINE1":"1 53284U 22086AU  23090.66090507  .00001516  00000-0  11332-3 0  9993","REF_FRAME":"TEME","SITE":"AFETR","RA_OF_ASC_NODE":"325.6237","RCS_SIZE":"LARGE","PERIOD":"95.438","CLASSIFICATION_TYPE":"U","REV_AT_EPOCH":"3888","OBJECT_TYPE":"PAYLOAD","PERIAPSIS":"539.051","FILE":"3876319","BSTAR":"0.00011332000000","MEAN_MOTION_DDOT":"0.0000000000000","MEAN_MOTION_DOT":"0.00001516","CENTER_NAME":"EARTH","SEMIMAJOR_AXIS":"6917.882","APOAPSIS":"540.442","NORAD_CAT_ID":"53284","DECAY_DATE":null,"COUNTRY_CODE":"US","LAUNCH_DATE":"2022-07-24","INCLINATION":"53.2171","OBJECT_NAME":"STARLINK-4172","MEAN_ANOMALY":"263.8005","EPHEMERIS_TYPE":"0","OBJECT_ID":"2022-086AU"},{"REF_FRAME":"TEME","TLE_LINE1":"1 53285U 22086AV  23090.64250813  .00029760  00000-0  18802-2 0  9999","RA_OF_ASC_NODE":"325.7086","SITE":"AFETR","RCS_SIZE":"LARGE","CLASSIFICATION_TYPE":"U","PERIOD":"95.438","EPOCH":"2023-03-31T15:25:12.702432","ELEMENT_SET_NO":"999","TIME_SYSTEM":"UTC","ARG_OF_PERICENTER":"112.0702","TLE_LINE2":"2 53285  53.2159 325.7086 0001184 112.0702 248.0416 15.08837809 38889","MEAN_MOTION":"15.08837809","GP_ID":"229200712","ECCENTRICITY":"0.00011840","MEAN_ELEMENT_THEORY":"SGP4","NORAD_CAT_ID":"53285","APOAPSIS":"540.571","COUNTRY_CODE":"US","LAUNCH_DATE":"2022-07-24","DECAY_DATE":null,"OBJECT_ID":"2022-086AV","MEAN_ANOMALY":"248.0416","INCLINATION":"53.2159","OBJECT_NAME":"STARLINK-4173","EPHEMERIS_TYPE":"0","OBJECT_TYPE":"PAYLOAD","REV_AT_EPOCH":"3888","PERIAPSIS":"538.933","MEAN_MOTION_DDOT":"0.0000000000000","BSTAR":"0.00188020000000","FILE":"3876319","SEMIMAJOR_AXIS":"6917.887","CENTER_NAME":"EARTH","MEAN_MOTION_DOT":"0.00029760"},{"OBJECT_ID":"2022-086AW","EPHEMERIS_TYPE":"0","INCLINATION":"53.2162","MEAN_ANOMALY":"278.9944","OBJECT_NAME":"STARLINK-4165","COUNTRY_CODE":"US","LAUNCH_DATE":"2022-07-24","DECAY_DATE":null,"NORAD_CAT_ID":"53286","APOAPSIS":"540.503","SEMIMAJOR_AXIS":"6917.889","CENTER_NAME":"EARTH","MEAN_MOTION_DOT":"0.00022947","MEAN_MOTION_DDOT":"0.0000000000000","BSTAR":"0.00145530000000","FILE":"3876319","PERIAPSIS":"539.006","OBJECT_TYPE":"PAYLOAD","REV_AT_EPOCH":"3888","CLASSIFICATION_TYPE":"U","PERIOD":"95.438","RCS_SIZE":"LARGE","RA_OF_ASC_NODE":"325.6760","SITE":"AFETR","REF_FRAME":"TEME","TLE_LINE1":"1 53286U 22086AW  23090.64986748  .00022947  00000-0  14553-2 0  9992","ECCENTRICITY":"0.00010820","GP_ID":"229200385","MEAN_ELEMENT_THEORY":"SGP4","MEAN_MOTION":"15.08837130","ARG_OF_PERICENTER":"81.1171","TLE_LINE2":"2 53286  53.2162 325.6760 0001082  81.1171 278.9944 15.08837130 38880","ELEMENT_SET_NO":"999","EPOCH":"2023-03-31T15:35:48.550272","TIME_SYSTEM":"UTC"},{"MEAN_MOTION":"15.08841981","ECCENTRICITY":"0.00018910","GP_ID":"229200397","MEAN_ELEMENT_THEORY":"SGP4","TIME_SYSTEM":"UTC","ELEMENT_SET_NO":"999","EPOCH":"2023-03-31T15:14:36.657600","ARG_OF_PERICENTER":"80.3060","TLE_LINE2":"2 53287  53.2156 325.7385 0001891  80.3060 279.8146 15.08841981 38887","RCS_SIZE":"LARGE","CLASSIFICATION_TYPE":"U","PERIOD":"95.437","REF_FRAME":"TEME","TLE_LINE1":"1 53287U 22086AX  23090.63514650  .00010672  00000-0  68757-3 0  9999","RA_OF_ASC_NODE":"325.7385","SITE":"AFETR","BSTAR":"0.00068757000000","MEAN_MOTION_DDOT":"0.0000000000000","FILE":"3876300","CENTER_NAME":"EARTH","SEMIMAJOR_AXIS":"6917.874","MEAN_MOTION_DOT":"0.00010672","OBJECT_TYPE":"PAYLOAD","REV_AT_EPOCH":"3888","PERIAPSIS":"538.431","COUNTRY_CODE":"US","LAUNCH_DATE":"2022-07-24","DECAY_DATE":null,"OBJECT_ID":"2022-086AX","INCLINATION":"53.2156","EPHEMERIS_TYPE":"0","MEAN_ANOMALY":"279.8146","OBJECT_NAME":"STARLINK-4107","NORAD_CAT_ID":"53287","APOAPSIS":"541.048"},{"NORAD_CAT_ID":"53288","APOAPSIS":"540.950","COUNTRY_CODE":"US","LAUNCH_DATE":"2022-07-24","DECAY_DATE":null,"OBJECT_ID":"2022-086AY","INCLINATION":"53.2172","OBJECT_NAME":"STARLINK-4162","MEAN_ANOMALY":"278.5576","EPHEMERIS_TYPE":"0","OBJECT_TYPE":"PAYLOAD","REV_AT_EPOCH":"3888","PERIAPSIS":"538.549","BSTAR":"0.00205320000000","MEAN_MOTION_DDOT":"0.0000000000000","FILE":"3876300","CENTER_NAME":"EARTH","SEMIMAJOR_AXIS":"6917.884","MEAN_MOTION_DOT":"0.00032539","REF_FRAME":"TEME","TLE_LINE1":"1 53288U 22086AY  23090.64619071  .00032539  00000-0  20532-2 0  9998","RA_OF_ASC_NODE":"325.6903","SITE":"AFETR","RCS_SIZE":"LARGE","CLASSIFICATION_TYPE":"U","PERIOD":"95.438","TIME_SYSTEM":"UTC","ELEMENT_SET_NO":"999","EPOCH":"2023-03-31T15:30:30.877344","ARG_OF_PERICENTER":"81.5613","TLE_LINE2":"2 53288  53.2172 325.6903 0001736  81.5613 278.5576 15.08838672 38882","MEAN_MOTION":"15.08838672","ECCENTRICITY":"0.00017360","GP_ID":"229200400","MEAN_ELEMENT_THEORY":"SGP4"},{"DECAY_DATE":null,"LAUNCH_DATE":"2022-07-24","COUNTRY_CODE":"US","MEAN_ANOMALY":"255.2852","OBJECT_NAME":"STARLINK-4176","EPHEMERIS_TYPE":"0","INCLINATION":"53.2170","OBJECT_ID":"2022-086AZ","APOAPSIS":"540.656","NORAD_CAT_ID":"53289","FILE":"3876567","MEAN_MOTION_DDOT":"0.0000000000000","BSTAR":"0.00040030000000","MEAN_MOTION_DOT":"0.00006090","SEMIMAJOR_AXIS":"6917.860","CENTER_NAME":"EARTH","REV_AT_EPOCH":"3898","OBJECT_TYPE":"PAYLOAD","PERIAPSIS":"538.794","RCS_SIZE":"LARGE","PERIOD":"95.437","CLASSIFICATION_TYPE":"U","TLE_LINE1":"1 53289U 22086AZ  23090.87666341  .00006090  00000-0  40030-3 0  9995","REF_FRAME":"TEME","SITE":"AFETR","RA_OF_ASC_NODE":"319.7991","MEAN_MOTION":"15.08846604","MEAN_ELEMENT_THEORY":"SGP4","GP_ID":"229207075","ECCENTRICITY":"0.00013460","EPOCH":"2023-03-31T21:02:23.718624","ELEMENT_SET_NO":"999","TIME_SYSTEM":"UTC","ARG_OF_PERICENTER":"104.8289","TLE_LINE2":"2 53289  53.2170 319.7991 0001346 104.8289 255.2852 15.08846604 38981"},{"REF_FRAME":"TEME","TLE_LINE1":"1 53290U 22086BA  23090.63882675  .00016487  00000-0  10514-2 0  9995","RA_OF_ASC_NODE":"325.7247","SITE":"AFETR","RCS_SIZE":"LARGE","CLASSIFICATION_TYPE":"U","PERIOD":"95.437","EPOCH":"2023-03-31T15:19:54.631200","ELEMENT_SET_NO":"999","TIME_SYSTEM":"UTC","TLE_LINE2":"2 53290  53.2161 325.7247 0000535  80.8534 279.2518 15.08845265 38885","ARG_OF_PERICENTER":"80.8534","MEAN_MOTION":"15.08845265","ECCENTRICITY":"0.00005350","GP_ID":"229200409","MEAN_ELEMENT_THEORY":"SGP4","NORAD_CAT_ID":"53290","APOAPSIS":"540.099","COUNTRY_CODE":"US","LAUNCH_DATE":"2022-07-24","DECAY_DATE":null,"OBJECT_ID":"2022-086BA","OBJECT_NAME":"STARLINK-4149","INCLINATION":"53.2161","MEAN_ANOMALY":"279.2518","EPHEMERIS_TYPE":"0","OBJECT_TYPE":"PAYLOAD","REV_AT_EPOCH":"3888","PERIAPSIS":"539.359","MEAN_MOTION_DDOT":"0.0000000000000","BSTAR":"0.00105140000000","FILE":"3876301","SEMIMAJOR_AXIS":"6917.864","CENTER_NAME":"EARTH","MEAN_MOTION_DOT":"0.00016487"},{"APOAPSIS":"540.252","NORAD_CAT_ID":"53291","DECAY_DATE":null,"COUNTRY_CODE":"US","LAUNCH_DATE":"2022-07-24","MEAN_ANOMALY":"287.4548","INCLINATION":"53.2161","OBJECT_NAME":"STARLINK-4166","EPHEMERIS_TYPE":"0","OBJECT_ID":"2022-086BB","REV_AT_EPOCH":"3899","OBJECT_TYPE":"PAYLOAD","PERIAPSIS":"539.240","FILE":"3876567","MEAN_MOTION_DDOT":"0.0000000000000","BSTAR":"0.00036024000000","MEAN_MOTION_DOT":"0.00005450","SEMIMAJOR_AXIS":"6917.881","CENTER_NAME":"EARTH","TLE_LINE1":"1 53291U 22086BB  23090.90975260  .00005450  00000-0  36024-3 0  9992","REF_FRAME":"TEME","SITE":"AFETR","RA_OF_ASC_NODE":"319.2969","RCS_SIZE":"LARGE","PERIOD":"95.438","CLASSIFICATION_TYPE":"U","EPOCH":"2023-03-31T21:50:02.624640","ELEMENT_SET_NO":"999","TIME_SYSTEM":"UTC","ARG_OF_PERICENTER":"72.6524","TLE_LINE2":"2 53291  53.2161 319.2969 0000732  72.6524 287.4548 15.08839787 38990","MEAN_MOTION":"15.08839787","MEAN_ELEMENT_THEORY":"SGP4","GP_ID":"229207076","ECCENTRICITY":"0.00007320"},{"PERIAPSIS":"538.482","OBJECT_TYPE":"PAYLOAD","REV_AT_EPOCH":"3891","CENTER_NAME":"EARTH","SEMIMAJOR_AXIS":"6917.872","MEAN_MOTION_DOT":"0.00002165","BSTAR":"0.00015408000000","MEAN_MOTION_DDOT":"0.0000000000000","FILE":"3876567","NORAD_CAT_ID":"53292","APOAPSIS":"540.992","OBJECT_ID":"2022-086BC","MEAN_ANOMALY":"301.1152","OBJECT_NAME":"STARLINK-4159","INCLINATION":"53.2162","EPHEMERIS_TYPE":"0","LAUNCH_DATE":"2022-07-24","COUNTRY_CODE":"US","DECAY_DATE":null,"TLE_LINE2":"2 53292  53.2162 324.8619 0001814  59.0018 301.1152 15.08842680 38918","ARG_OF_PERICENTER":"59.0018","TIME_SYSTEM":"UTC","EPOCH":"2023-03-31T19:56:51.083520","ELEMENT_SET_NO":"999","GP_ID":"229207269","ECCENTRICITY":"0.00018140","MEAN_ELEMENT_THEORY":"SGP4","MEAN_MOTION":"15.08842680","RA_OF_ASC_NODE":"324.8619","SITE":"AFETR","REF_FRAME":"TEME","TLE_LINE1":"1 53292U 22086BC  23090.83114680  .00002165  00000-0  15408-3 0  9999","CLASSIFICATION_TYPE":"U","PERIOD":"95.437","RCS_SIZE":"LARGE"},{"PERIAPSIS":"538.855","REV_AT_EPOCH":"3905","OBJECT_TYPE":"PAYLOAD","MEAN_MOTION_DOT":"-0.00001173","CENTER_NAME":"EARTH","SEMIMAJOR_AXIS":"6917.859","FILE":"3876567","BSTAR":"-0.00005558800000","MEAN_MOTION_DDOT":"0.0000000000000","APOAPSIS":"540.593","NORAD_CAT_ID":"53293","OBJECT_NAME":"STARLINK-4148","EPHEMERIS_TYPE":"0","MEAN_ANOMALY":"251.8724","INCLINATION":"53.2165","OBJECT_ID":"2022-086BD","DECAY_DATE":null,"COUNTRY_CODE":"US","LAUNCH_DATE":"2022-07-24","TLE_LINE2":"2 53293  53.2165 314.6867 0001256 108.2405 251.8724 15.08847011 39056","ARG_OF_PERICENTER":"108.2405","TIME_SYSTEM":"UTC","ELEMENT_SET_NO":"999","EPOCH":"2023-03-31T20:51:09.561024","MEAN_ELEMENT_THEORY":"SGP4","GP_ID":"229207270","ECCENTRICITY":"0.00012560","MEAN_MOTION":"15.08847011","SITE":"AFETR","RA_OF_ASC_NODE":"314.6867","TLE_LINE1":"1 53293U 22086BD  23090.86886066 -.00001173  00000-0 -55588-4 0  9991","REF_FRAME":"TEME","PERIOD":"95.437","CLASSIFICATION_TYPE":"U","RCS_SIZE":"LARGE"}];
